#dP2024  2 14  6  0  0.00000000      96 __u+U IGS20 EXT  IAC
## 2301 280800.00000000   900.00000000 60354 0.2500000000000
+  119   C06C07C08C09C10C11C12C13C14C16C19C20C21C22C23C24C25
+        C26C27C28C29C30C32C33C34C35C36C37C38C39C40C41C42C43
+        C44C45C46E02E03E04E05E07E08E09E10E11E12E13E14E15E18
+        E19E21E24E25E26E27E30E31E33E34E36G01G02G03G04G05G06
+        G07G08G09G10G11G12G13G14G15G16G17G18G19G20G21G22G23
+        G24G25G26G27G28G29G30G31G32J02J03J04R01R02R03R04R05
+        R07R08R09R11R12R13R14R15R16R17R18R19R20R21R22R24R26
++         8  9  9  9  7 10  8 10  9  8  8  9  9  8  8  9  9
++         9 10  8  8  8  8  9  8  8  8  9 11 10  9  8 10 10
++         9  9  8  8  8  8  8  8  8  8  8  8  8  8  8  8  8
++         9  9  8  8  7  8 12  8  8  9  8  8  8  8  8  8  8
++         8  8  8  8  8  8  9  8  8  8  8  8  8  8  8  8  8
++         7  8  8  8  8  8  8  8  8  9  0  9  9  8  9  8  9
++         8  8  8  9  9  9  8  8  8  9  7  9 11  8  7  8  9
%c M  cc GPS ccc cccc cccc cccc cccc ccccc ccccc ccccc ccccc
%c cc cc ccc ccc cccc cccc cccc cccc ccccc ccccc ccccc ccccc
%f  0.0000000  0.000000000  0.00000000000  0.000000000000000
%f  0.0000000  0.000000000  0.00000000000  0.000000000000000
%i    0    0    0    0      0      0      0      0         0
%i    0    0    0    0      0      0      0      0         0
/* IAC                                ULTRA-RAPID PREDICTION
/* S/V CLOCKS ARE ALIGNED TO GNSS TIME                      
/* G:C1WC2W R:C1PC2P E:C1XC5X C:C2IC6I J:C1CC2S             
/* PCV:IGS20_2290 OL/AL:FES2004  NONE     YN ORB:CoN CLK:CoN
*  2024 02 14 18  0  0.00000000
PC06 -15480.031999  39073.786143  -4972.120379    110.080154
PC07  -3126.084648  31885.969563 -27228.207143   -801.298951
PC08 -14596.001137  20288.637164  33897.363382     38.271890
PC09 -10775.235267  38742.662491 -13234.568244   -489.978766
PC10   4023.507733  34423.187969 -23321.483056     85.090204
PC11 -11856.057360  22028.220710 -12292.171996    410.565302
PC12 -15793.329258   3171.544041 -22747.071943    769.951619
PC13  -4525.957625  22250.463099  35658.470876    417.322280
PC14 -10842.847685  11432.455823  23051.458486    190.247205
PC16 -17141.327132  38624.831337  -2461.693388   -339.715344
PC19   1317.311326 -17428.789723 -21731.361841   -926.869211
PC20  17205.747862  -5046.262536 -21359.907558   -162.737970
PC21 -24119.049219 -11619.208521   7939.783398   -962.164898
PC22 -16238.615987 -20563.326898  -9638.255709   -109.827478
PC23   6385.621553  15053.388162 -22619.449949   -781.191320
PC24 -25643.880061  10970.411889   -201.063226    884.393391
PC25 -12653.010824  18676.088130 -16429.312296    326.136489
PC26 -23084.817258  -1887.372002  15519.228947   -249.191951
PC27  14920.953764   7040.168495  22490.028233    271.157405
PC28   7143.274748  22775.464343  14466.113531    206.268861
PC29   5670.075121 -26959.950841   4421.582259    241.766400
PC30  14963.663675 -13312.049114  19414.910433    -25.231157
PC32  24182.534787  11502.956282  -7807.000284   -567.627665
PC33  -1376.680076  17395.627075  21780.385761   -948.790772
PC34 -14588.209533  14909.162488 -18560.934550    369.298068
PC35  -7999.188486 -22533.226990 -14365.740748    433.654948
PC36  13591.373952 -18331.944062  16082.217784    -15.050994
PC37  22818.695568   2745.680800 -15845.112921   -936.314335
PC38 -22402.477181  21433.892638  28560.110839    136.797734
PC39 -18766.083331  37621.536280   4588.279167     -7.144227
PC40  -6737.756947  27331.724611 -31300.379150    -56.505993
PC41  15623.171483  20651.953633  10440.741682   -890.898122
PC42 -18397.796697   3727.146922  20705.093312   -454.476160
PC43  -6314.669379  26677.951427  -5294.107103     60.417979
PC44 -15307.315124  -6621.623962 -22382.349483    384.465790
PC45  -6516.076402 -14857.208658  22694.835643    -70.112995
PC46  25452.638087 -11446.730888   1059.104306   -123.849422
PE02  -1471.504842  16813.728860 -24329.502738    103.391874
PE03   1979.697375  27609.335216  10473.835787    -93.825973
PE04 -14715.567285 -24312.241104   8286.365020   -327.274578
PE05 -11715.886688  14755.281426  22834.834120   4720.030238
PE07  18690.166011   7267.013746 -21763.023549   -103.771604
PE08  14346.727772  24726.104296  -7660.697318   -223.873277
PE09 -18590.660472  -7445.526889  21804.518444   -336.049831
PE10 -15532.220491  -6004.418876 -24472.433921   -601.943448
PE11 -21085.467728   4393.603543 -20317.718186   3246.673137
PE12  -8393.209705 -14451.090356 -24425.891253   -906.348140
PE13  20766.613971  -3759.209670  20758.165855    -20.188734
PE14 -19362.578139   3142.229588 -22997.516010     39.379717
PE15   7861.118573  14867.581679  24370.932009    -85.807140
PE18   9308.704982 -19449.895205  16974.386399    326.626914
PE19   -269.360451 -26866.247441 -12407.876587   -615.202343
PE21  21098.663061  -9086.392169  18661.336404   -579.019999
PE24 -29188.473063  -4599.912307  -1523.187601   -598.205276
PE25 -21399.451171   8864.702607 -18427.975851      0.882768
PE26  21152.914285 -20222.147019   4437.719666    368.753229
PE27  29237.361971   4277.765940   1863.980067   -274.704027
PE30  19798.859286  15149.333920 -15989.989239      2.923672
PE31 -20038.614593 -14959.231519  15830.799382    -16.004495
PE33   9918.633692 -24574.171578 -13178.155064      7.585833
PE34  -9408.035155  24520.615601  13653.683009    -94.634843
PE36 -21328.602481  19902.297448  -5056.953199   -185.931501
PG01  10428.803200 -22178.026240 -10151.183590    169.543111
PG02  14843.426468 -21834.076808   -496.698879   -485.469507
PG03   9723.681714 -12730.867572 -21306.472261    193.076492
PG04   3991.181501 -21380.967279 -15133.439560    291.656013
PG05 -21275.865262   7132.333654  14106.123808   -161.813491
PG06 -15501.867412  -3330.145994 -21258.105925    407.133478
PG07  -1087.728546 -19320.548961  18473.299182    -61.918317
PG08   9507.853301 -14305.511884  20046.255045   -167.032946
PG09  -6921.422770 -25292.104937  -4110.029516     92.119772
PG10  22030.890565  10962.496829  10612.590366      0.462246
PG11 -20703.131879   7455.951488 -14814.873218   -575.748700
PG12 -11112.323761  12336.416590 -21004.504430   -477.971780
PG13 -14224.156825   4551.706659  21752.612416    625.514939
PG14 -18950.637888 -13401.513544  13105.117010    325.701925
PG15  -7902.361011  15524.033110  19505.298336    127.688133
PG16  24988.749086   -137.111018   9312.617253   -362.687473
PG17 -12580.129693 -21511.418420  -8541.307745    716.989197
PG18   1151.943149  18436.148829  19028.319392   -555.538703
PG19 -15382.853663 -14357.396337 -16609.840697    440.649528
PG20 -26381.765885   1372.802388   1751.313992    387.506146
PG21  17154.065583 -19111.478402   4703.882043    134.934317
PG22 -23182.304613 -10994.924113   6672.516374     31.249872
PG23  11335.391952  14645.757582  19132.973713    156.160420
PG24 -15068.567285  21581.152712    374.828027   -431.691729
PG25   1523.742691  15857.635954 -21618.562372    488.576774
PG26  26427.141880   3851.404839  -1853.001725    190.227735
PG27  15527.716728   -750.969135  21309.837104     -4.018788
PG28  14266.887677   6153.337939 -21561.098945   -131.025724
PG29   3476.117994  25717.890105  -5443.374267   -606.977280
PG30 -10608.379429 -11871.034316  21371.432173   -432.599730
PG31  19611.880036  -3083.376258 -18044.135953   -227.769767
PG32  15410.106792  18517.107591 -11212.122040   -611.613067
PJ02 -30066.797928  14549.681924 -21101.158289     -1.985939
PJ03      0.000000      0.000000      0.000000     -0.233616
PJ04 -24094.422948  27819.063362  26409.924088     50.912975
PR01  16625.145209  19137.402868   2789.453308     77.176560
PR02  18375.905529  10642.624103 -14134.795883    -22.463144
PR03  10268.478356  -4662.773618 -22833.221013     94.515679
PR04  -3339.936371 -16812.062798 -18850.912283    223.434688
PR05 -14994.101273 -20079.026545  -4677.578106    126.911051
PR07  -9589.984649   5528.586168  23022.911001     75.813458
PR08   3560.496606  16998.237343  18761.646501    -74.416516
PR09 -23725.983393   1193.274380   9410.928041    169.985163
PR11 -10053.269848  12138.493492 -20056.043555     34.345690
PR12  10874.353382   8152.444975 -21572.293506     36.749742
PR13  22706.758155    339.466401 -11644.011888    -44.350537
PR14  22499.568145  -9152.946367   7765.040276     26.069862
PR15   8572.384375 -12166.473939  20726.211409     82.203326
PR16 -10607.898561  -8078.105539  21753.988395     23.278626
PR17  12417.569494 -17060.592459  14367.324407     61.234858
PR18   7492.793645 -24308.215094  -1433.233597    127.386246
PR19    191.847413 -20313.914520 -15421.040248   -265.799312
PR20 -10452.204614  -1533.707961 -23208.451332   -108.265289
PR21 -12457.180534  17157.999693 -14162.901090    -76.964923
PR22  -7612.736612  24222.221118   2578.796917    108.102556
PR24  11138.033758    679.621470  22957.772940    -43.903593
PR26   2877.910274  16467.452536  19281.989877   -198.387339
EOF
